OBJECT_NAME,OBJECT_ID,EPOCH,MEAN_MOTION,ECCENTRICITY,INCLINATION,RA_OF_ASC_NODE,ARG_OF_PERICENTER,MEAN_ANOMALY,EPHEMERIS_TYPE,CLASSIFICATION_TYPE,NORAD_CAT_ID,ELEMENT_SET_NO,REV_AT_EPOCH,BSTAR,MEAN_MOTION_DOT,MEAN_MOTION_DDOT
ONEWEB-0130,2020-100U,2026-06-06T12:24:00.500544,13.12444190,.00017092,87.8949,352.7746,90.2484,269.8841,0,U,47276,999,26324,.54151719E-3,.208E-5,0
ONEWEB-0131,2020-100V,2026-06-06T12:19:07.043808,13.12444652,.0001742,87.8937,352.7946,88.9079,271.2249,0,U,47277,999,26328,.23451792E-3,.97E-6,0
ONEWEB-0132,2020-100W,2026-06-06T13:00:36.374688,13.12442862,.00017363,87.8946,352.7907,89.2265,270.9062,0,U,47278,999,26318,.66640951E-3,.252E-5,0
ONEWEB-0133,2020-100X,2026-06-06T11:35:00.200544,13.12442985,.00016785,87.8954,352.7770,86.1959,273.9362,0,U,47279,999,26333,-.8085538E-3,-.278E-5,0
ONEWEB-0134,2020-100Y,2026-06-06T12:41:04.757856,13.12444258,.00015508,87.8951,352.7649,94.1333,265.9973,0,U,47280,999,26331,.13012699E-2,.481E-5,0
ONEWEB-0135,2020-100Z,2026-06-06T11:59:35.835648,13.12444197,.00014407,87.8945,352.7949,89.1400,270.9894,0,U,47281,999,26333,-.10508936E-2,-.365E-5,0
ONEWEB-0136,2020-100AA,2026-06-06T12:26:26.512224,13.12443914,.00015169,87.8949,352.7719,92.7795,267.3507,0,U,47282,999,26326,.64758826E-3,.246E-5,0
ONEWEB-0137,2020-100AB,2026-06-06T11:25:26.716224,13.12442612,.00018811,87.8961,352.7901,90.8294,269.3050,0,U,47283,999,26316,-.28463109E-3,-.9E-6,0
ONEWEB-0138,2020-100AC,2026-06-06T12:43:31.668960,13.12443280,.00016086,87.8949,352.7848,94.2851,265.8461,0,U,47284,999,26325,.14116657E-2,.521E-5,0
ONEWEB-0139,2020-100AD,2026-06-06T11:52:28.686144,13.12444479,.00017808,87.8947,352.7788,90.3749,269.7584,0,U,47285,999,26332,-.11017906E-2,-.384E-5,0
ONEWEB-0140,2020-100AE,2026-06-06T12:36:12.284352,13.12443471,.0001679,87.8949,352.7629,82.9471,277.1848,0,U,47286,999,26329,.13744333E-2,.507E-5,0
ONEWEB-0141,2020-100AF,2026-06-06T11:52:04.896768,13.12444008,.00020889,87.8951,352.7737,92.4392,267.6976,0,U,47287,999,26327,-.12449873E-2,-.435E-5,0
ONEWEB-0142,2020-100AG,2026-06-06T11:35:25.380096,13.12441355,.00019768,87.8945,352.7982,100.7246,259.4105,0,U,47288,999,26326,-.84160826E-3,-.29E-5,0
ONEWEB-0143,2020-100AH,2026-06-06T11:49:50.393568,13.12443708,.00018268,87.8951,352.7945,89.5235,270.6103,0,U,47289,999,26324,-.11786009E-2,-.411E-5,0
ONEWEB-0144,2020-100AJ,2026-06-06T12:58:10.896096,13.12441248,.000165,87.8955,352.7586,99.6629,260.4686,0,U,47290,999,26317,.16671573E-2,.613E-5,0
ONEWEB-0145,2020-100AK,2026-06-06T12:16:41.058048,13.12444418,.00018046,87.8941,352.7935,92.1345,267.9991,0,U,47291,999,26336,-.53040956E-4,-.6E-7,0
ONEWEB-0146,2020-100AL,2026-06-06T12:11:48.412608,13.12444115,.00018676,87.8947,352.7853,78.6892,281.4446,0,U,47292,999,26327,-.31881729E-3,-.102E-5,0
ONEWEB-0147,2020-100AM,2026-06-06T11:23:00.489408,13.12442692,.0001638,87.8957,352.7746,92.4127,267.7189,0,U,47293,999,26316,-.59720891E-4,-.9E-7,0
ONEWEB-0115,2021-025A,2026-06-06T10:25:56.250912,13.13470065,.00017842,87.8948,322.3649,91.7693,268.3641,0,U,48042,999,25218,.77825327E-3,.297E-5,0
ONEWEB-0152,2021-025B,2026-06-06T10:45:26.328960,13.13469354,.00017536,87.8954,322.3586,89.5122,270.6208,0,U,48043,999,25214,.90791281E-3,.344E-5,0
ONEWEB-0153,2021-025C,2026-06-06T12:03:26.324064,13.13470587,.00018382,87.8949,322.3512,97.8184,262.3154,0,U,48044,999,25214,-.34830767E-3,-.114E-5,0
ONEWEB-0154,2021-025D,2026-06-06T04:39:46.587744,13.13469294,.00017293,87.8950,322.4105,93.1233,267.0094,0,U,48045,999,25206,-.30743367E-3,-.1E-5,0
ONEWEB-0116,2021-025E,2026-06-06T12:54:36.506592,13.13469197,.00017153,87.8958,322.3376,89.8528,270.2797,0,U,48046,999,25225,.30556262E-3,.124E-5,0
ONEWEB-0150,2021-025F,2026-06-06T10:30:48.623328,13.13469994,.00020241,87.8954,322.3552,94.9220,265.2140,0,U,48047,999,25213,.81497197E-3,.31E-5,0
ONEWEB-0107,2021-025G,2026-06-06T10:33:14.962464,13.13469369,.00018538,87.8955,322.3507,102.5831,257.5505,0,U,48048,999,25211,.77166721E-3,.295E-5,0
ONEWEB-0101,2021-025H,2026-06-06T11:29:18.434976,13.13469657,.00016815,87.8944,322.3591,97.8417,262.2903,0,U,48049,999,25209,-.62116577E-3,-.214E-5,0
ONEWEB-0113,2021-025J,2026-06-06T12:09:21.144672,13.13895215,.00018453,87.8950,322.2651,93.8953,266.2388,0,U,48050,999,25220,.25450881E-3,.106E-5,0
ONEWEB-0112,2021-025K,2026-06-06T10:40:33.827808,13.13469894,.00016405,87.8954,322.3473,102.6169,257.5144,0,U,48051,999,25218,.95470985E-3,.361E-5,0
ONEWEB-0156,2021-025L,2026-06-06T12:42:26.618400,13.13468722,.00018717,87.8954,322.3406,97.6254,262.5087,0,U,48052,999,25217,.59439633E-3,.23E-5,0
ONEWEB-0161,2021-025M,2026-06-06T12:05:52.608768,13.13470911,.00018868,87.8953,322.3474,99.3349,260.7994,0,U,48053,999,25210,.10745961E-3,.52E-6,0
