ONEWEB-0130             
1 47276U 20100U   26157.51667246  .00000208  00000+0  54152-3 0  9996
2 47276  87.8949 352.7746 0001709  90.2484 269.8841 13.12444190263245
ONEWEB-0131             
1 47277U 20100V   26157.51327597  .00000097  00000+0  23452-3 0  9994
2 47277  87.8937 352.7946 0001742  88.9079 271.2249 13.12444652263282
ONEWEB-0132             
1 47278U 20100W   26157.54208767  .00000252  00000+0  66641-3 0  9995
2 47278  87.8946 352.7907 0001736  89.2265 270.9062 13.12442862263183
ONEWEB-0133             
1 47279U 20100X   26157.48264121 -.00000278  00000+0 -80855-3 0  9998
2 47279  87.8954 352.7770 0001678  86.1959 273.9362 13.12442985263331
ONEWEB-0134             
1 47280U 20100Y   26157.52852729  .00000481  00000+0  13013-2 0  9997
2 47280  87.8951 352.7649 0001550  94.1333 265.9973 13.12444258263311
ONEWEB-0135             
1 47281U 20100Z   26157.49972032 -.00000365  00000+0 -10509-2 0  9994
2 47281  87.8945 352.7949 0001440  89.1400 270.9894 13.12444197263337
ONEWEB-0136             
1 47282U 20100AA  26157.51836241  .00000246  00000+0  64759-3 0  9992
2 47282  87.8949 352.7719 0001516  92.7795 267.3507 13.12443914263267
ONEWEB-0137             
1 47283U 20100AB  26157.47600366 -.00000090  00000+0 -28463-3 0  9996
2 47283  87.8961 352.7901 0001881  90.8294 269.3050 13.12442612263161
ONEWEB-0138             
1 47284U 20100AC  26157.53022765  .00000521  00000+0  14117-2 0  9992
2 47284  87.8949 352.7848 0001608  94.2851 265.8461 13.12443280263251
ONEWEB-0139             
1 47285U 20100AD  26157.49477646 -.00000384  00000+0 -11018-2 0  9996
2 47285  87.8947 352.7788 0001780  90.3749 269.7584 13.12444479263325
ONEWEB-0140             
1 47286U 20100AE  26157.52514218  .00000507  00000+0  13744-2 0  9991
2 47286  87.8949 352.7629 0001679  82.9471 277.1848 13.12443471263291
ONEWEB-0141             
1 47287U 20100AF  26157.49450112 -.00000435  00000+0 -12450-2 0  9995
2 47287  87.8951 352.7737 0002088  92.4392 267.6976 13.12444008263279
ONEWEB-0142             
1 47288U 20100AG  26157.48293264 -.00000290  00000+0 -84161-3 0  9996
2 47288  87.8945 352.7982 0001976 100.7246 259.4105 13.12441355263265
ONEWEB-0143             
1 47289U 20100AH  26157.49294437 -.00000411  00000+0 -11786-2 0  9998
2 47289  87.8951 352.7945 0001826  89.5235 270.6103 13.12443708263243
ONEWEB-0144             
1 47290U 20100AJ  26157.54040389  .00000613  00000+0  16672-2 0  9992
2 47290  87.8955 352.7586 0001650  99.6629 260.4686 13.12441248263176
ONEWEB-0145             
1 47291U 20100AK  26157.51158632 -.00000006  00000+0 -53041-4 0  9992
2 47291  87.8941 352.7935 0001804  92.1345 267.9991 13.12444418263368
ONEWEB-0146             
1 47292U 20100AL  26157.50819922 -.00000102  00000+0 -31882-3 0  9993
2 47292  87.8947 352.7853 0001867  78.6892 281.4446 13.12444115263279
ONEWEB-0147             
1 47293U 20100AM  26157.47431122 -.00000009  00000+0 -59721-4 0  9991
2 47293  87.8957 352.7746 0001638  92.4127 267.7189 13.12442692263160
ONEWEB-0115             
1 48042U 21025A   26157.43467883  .00000297  00000+0  77825-3 0  9991
2 48042  87.8948 322.3649 0001784  91.7693 268.3641 13.13470065252186
ONEWEB-0152             
1 48043U 21025B   26157.44822140  .00000344  00000+0  90791-3 0  9994
2 48043  87.8954 322.3586 0001753  89.5122 270.6208 13.13469354252142
ONEWEB-0153             
1 48044U 21025C   26157.50238801 -.00000114  00000+0 -34831-3 0  9997
2 48044  87.8949 322.3512 0001838  97.8184 262.3154 13.13470587252148
ONEWEB-0154             
1 48045U 21025D   26157.19428921 -.00000100  00000+0 -30743-3 0  9990
2 48045  87.8950 322.4105 0001729  93.1233 267.0094 13.13469294252062
ONEWEB-0116             
1 48046U 21025E   26157.53792253  .00000124  00000+0  30556-3 0  9997
2 48046  87.8958 322.3376 0001715  89.8528 270.2797 13.13469197252253
ONEWEB-0150             
1 48047U 21025F   26157.43806277  .00000310  00000+0  81497-3 0  9996
2 48047  87.8954 322.3552 0002024  94.9220 265.2140 13.13469994252134
ONEWEB-0107             
1 48048U 21025G   26157.43975651  .00000295  00000+0  77167-3 0  9991
2 48048  87.8955 322.3507 0001853 102.5831 257.5505 13.13469369252112
ONEWEB-0101             
1 48049U 21025H   26157.47868559 -.00000214  00000+0 -62117-3 0  9996
2 48049  87.8944 322.3591 0001681  97.8417 262.2903 13.13469657252091
ONEWEB-0113             
1 48050U 21025J   26157.50649473  .00000106  00000+0  25451-3 0  9992
2 48050  87.8950 322.2651 0001845  93.8953 266.2388 13.13895215252206
ONEWEB-0112             
1 48051U 21025K   26157.44483597  .00000361  00000+0  95471-3 0  9991
2 48051  87.8954 322.3473 0001640 102.6169 257.5144 13.13469894252185
ONEWEB-0156             
1 48052U 21025L   26157.52947475  .00000230  00000+0  59440-3 0  9992
2 48052  87.8954 322.3406 0001871  97.6254 262.5087 13.13468722252176
ONEWEB-0161             
1 48053U 21025M   26157.50408112  .00000052  00000+0  10746-3 0  9999
2 48053  87.8953 322.3474 0001886  99.3349 260.7994 13.13470911252104
